{"type": "FeatureCollection", "features": [ {"type": "Feature", "properties": {"norad_id": 43010, "name": "FENGYUN 3D", "group": "weather", "lat": 51.65023207181215, "lon": 136.3878183637681, "alt_km": 821.5701024341415, "timestamp": "2025-12-04T15:47:53.739354+00:00", "meta": {"OBJECT_NAME": "FENGYUN 3D", "OBJECT_ID": "2017-072A", "EPOCH": "2025-12-04T08:26:03.939072", "MEAN_MOTION": 14.19680148, "ECCENTRICITY": 6.367e-05, "INCLINATION": 98.9881, "RA_OF_ASC_NODE": 304.5366, "ARG_OF_PERICENTER": 215.0808, "MEAN_ANOMALY": 145.0326, "EPHEMERIS_TYPE": 0, "CLASSIFICATION_TYPE": "U", "NORAD_CAT_ID": 43010, "ELEMENT_SET_NO": 999, "REV_AT_EPOCH": 41734, "BSTAR": 0.00012711186, "MEAN_MOTION_DOT": 2.23e-06, "MEAN_MOTION_DDOT": 0}, "tle": {"line1": "1 43010U 17072A   25338.35143448  .00000223  00000+0  12711-3 0  9999", "line2": "2 43010  98.9881 304.5366 0000636 215.0808 145.0326 14.19680148417341"}}, "geometry": {"type": "Point", "coordinates": [136.3878183637681, 51.65023207181215]}}, {"type": "Feature", "properties": {"norad_id": 43013, "name": "NOAA 20 (JPSS-1)", "group": "weather", "lat": -73.16057681351269, "lon": -54.33477213217077, "alt_km": 835.7381879953755, "timestamp": "2025-12-04T15:47:53.739365+00:00", "meta": {"OBJECT_NAME": "NOAA 20 (JPSS-1)", "OBJECT_ID": "2017-073A", "EPOCH": "2025-12-04T07:41:43.934496", "MEAN_MOTION": 14.19522364, "ECCENTRICITY": 0.0002079, "INCLINATION": 98.7587, "RA_OF_ASC_NODE": 274.71, "ARG_OF_PERICENTER": 99.2685, "MEAN_ANOMALY": 260.8726, "EPHEMERIS_TYPE": 0, "CLASSIFICATION_TYPE": "U", "NORAD_CAT_ID": 43013, "ELEMENT_SET_NO": 999, "REV_AT_EPOCH": 41682, "BSTAR": 0.00011180602, "MEAN_MOTION_DOT": 1.92e-06, "MEAN_MOTION_DDOT": 0}, "tle": {"line1": "1 43013U 17073A   25338.32064739  .00000192  00000+0  11181-3 0  9990", "line2": "2 43013  98.7587 274.7100 0002079  99.2685 260.8726 14.19522364416824"}}, "geometry": {"type": "Point", "coordinates": [-54.33477213217077, -73.16057681351269]}}, {"type": "Feature", "properties": {"norad_id": 43226, "name": "GOES 17", "group": "weather", "lat": 0.29850240074859935, "lon": -138.8467317559562, "alt_km": 35776.77400436979, "timestamp": "2025-12-04T15:47:53.739377+00:00", "meta": {"OBJECT_NAME": "GOES 17", "OBJECT_ID": "2018-022A", "EPOCH": "2025-12-04T06:27:05.483808", "MEAN_MOTION": 1.00271208, "ECCENTRICITY": 0.00034717, "INCLINATION": 0.4363, "RA_OF_ASC_NODE": 89.312, "ARG_OF_PERICENTER": 181.9959, "MEAN_ANOMALY": 169.3108, "EPHEMERIS_TYPE": 0, "CLASSIFICATION_TYPE": "U", "NORAD_CAT_ID": 43226, "ELEMENT_SET_NO": 999, "REV_AT_EPOCH": 2846, "BSTAR": 0, "MEAN_MOTION_DOT": -1.67e-06, "MEAN_MOTION_DDOT": 0}, "tle": {"line1": "1 43226U 18022A   25338.26881347 -.00000167  00000+0  00000+0 0  9993", "line2": "2 43226   0.4363  89.3120 0003471 181.9959 169.3108  1.00271208 28464"}}, "geometry": {"type": "Point", "coordinates": [-138.8467317559562, 0.29850240074859935]}}, {"type": "Feature", "properties": {"norad_id": 43491, "name": "FENGYUN 2H", "group": "weather", "lat": -1.9506376609775016, "lon": 30.091145171248236, "alt_km": 35796.67859315613, "timestamp": "2025-12-04T15:47:53.739397+00:00", "meta": {"OBJECT_NAME": "FENGYUN 2H", "OBJECT_ID": "2018-050A", "EPOCH": "2025-12-04T02:07:07.068000", "MEAN_MOTION": 1.00271345, "ECCENTRICITY": 0.0002919, "INCLINATION": 2.5269, "RA_OF_ASC_NODE": 81.4248, "ARG_OF_PERICENTER": 163.007, "MEAN_ANOMALY": 299.8746, "EPHEMERIS_TYPE": 0, "CLASSIFICATION_TYPE": "U", "NORAD_CAT_ID": 43491, "ELEMENT_SET_NO": 999, "REV_AT_EPOCH": 2748, "BSTAR": 0, "MEAN_MOTION_DOT": -1.15e-06, "MEAN_MOTION_DDOT": 0}, "tle": {"line1": "1 43491U 18050A   25338.08827625 -.00000115  00000+0  00000+0 0  9990", "line2": "2 43491   2.5269  81.4248 0002919 163.0070 299.8746  1.00271345 27481"}}, "geometry": {"type": "Point", "coordinates": [30.091145171248236, -1.9506376609775016]}}, {"type": "Feature", "properties": {"norad_id": 43689, "name": "METOP-C", "group": "weather", "lat": 7.830637375389429, "lon": 35.34537352181271, "alt_km": 821.2818346710164, "timestamp": "2025-12-04T15:47:53.739409+00:00", "meta": {"OBJECT_NAME": "METOP-C", "OBJECT_ID": "2018-087A", "EPOCH": "2025-12-04T07:18:52.542720", "MEAN_MOTION": 14.21507124, "ECCENTRICITY": 0.00016719, "INCLINATION": 98.6942, "RA_OF_ASC_NODE": 36.2031, "ARG_OF_PERICENTER": 56.1854, "MEAN_ANOMALY": 303.9483, "EPHEMERIS_TYPE": 0, "CLASSIFICATION_TYPE": "U", "NORAD_CAT_ID": 43689, "ELEMENT_SET_NO": 999, "REV_AT_EPOCH": 36714, "BSTAR": 0.00016383342, "MEAN_MOTION_DOT": 3.15e-06, "MEAN_MOTION_DDOT": 0}, "tle": {"line1": "1 43689U 18087A   25338.30477480  .00000315  00000+0  16383-3 0  9990", "line2": "2 43689  98.6942  36.2031 0001671  56.1854 303.9483 14.21507124367147"}}, "geometry": {"type": "Point", "coordinates": [35.34537352181271, 7.830637375389429]}}, {"type": "Feature", "properties": {"norad_id": 43823, "name": "GEO-KOMPSAT-2A", "group": "weather", "lat": 0.0005939838474008481, "lon": 78.93212772231009, "alt_km": 35788.381392191666, "timestamp": "2025-12-04T15:47:53.739420+00:00", "meta": {"OBJECT_NAME": "GEO-KOMPSAT-2A", "OBJECT_ID": "2018-100A", "EPOCH": "2025-12-04T07:29:14.531136", "MEAN_MOTION": 1.00269385, "ECCENTRICITY": 5.128e-05, "INCLINATION": 0.0604, "RA_OF_ASC_NODE": 120.4419, "ARG_OF_PERICENTER": 94.8748, "MEAN_ANOMALY": 98.6384, "EPHEMERIS_TYPE": 0, "CLASSIFICATION_TYPE": "U", "NORAD_CAT_ID": 43823, "ELEMENT_SET_NO": 999, "REV_AT_EPOCH": 2567, "BSTAR": 0, "MEAN_MOTION_DOT": -3.28e-06, "MEAN_MOTION_DDOT": 0}, "tle": {"line1": "1 43823U 18100A   25338.31197374 -.00000328  00000+0  00000+0 0  9998", "line2": "2 43823   0.0604 120.4419 0000512  94.8748  98.6384  1.00269385 25673"}}, "geometry": {"type": "Point", "coordinates": [78.93212772231009, 0.0005939838474008481]}}, {"type": "Feature", "properties": {"norad_id": 44387, "name": "METEOR-M2 2", "group": "weather", "lat": 0.8809852661514642, "lon": -41.84944193495939, "alt_km": 814.3270033537128, "timestamp": "2025-12-04T15:47:53.739431+00:00", "meta": {"OBJECT_NAME": "METEOR-M2 2", "OBJECT_ID": "2019-038A", "EPOCH": "2025-12-04T07:21:50.646816", "MEAN_MOTION": 14.24286068, "ECCENTRICITY": 9.248e-05, "INCLINATION": 98.8964, "RA_OF_ASC_NODE": 317.9329, "ARG_OF_PERICENTER": 165.0252, "MEAN_ANOMALY": 195.0954, "EPHEMERIS_TYPE": 0, "CLASSIFICATION_TYPE": "U", "NORAD_CAT_ID": 44387, "ELEMENT_SET_NO": 999, "REV_AT_EPOCH": 33355, "BSTAR": 0.00016796912, "MEAN_MOTION_DOT": 3.42e-06, "MEAN_MOTION_DDOT": 0}, "tle": {"line1": "1 44387U 19038A   25338.30683619  .00000342  00000+0  16797-3 0  9995", "line2": "2 44387  98.8964 317.9329 0000924 165.0252 195.0954 14.24286068333555"}}, "geometry": {"type": "Point", "coordinates": [-41.84944193495939, 0.8809852661514642]}}, {"type": "Feature", "properties": {"norad_id": 47719, "name": "ARKTIKA-M 1", "group": "weather", "lat": 43.15755651906795, "lon": 113.40252061739541, "alt_km": 22683.146604266916, "timestamp": "2025-12-04T15:47:53.739447+00:00", "meta": {"OBJECT_NAME": "ARKTIKA-M 1", "OBJECT_ID": "2021-016A", "EPOCH": "2025-12-01T02:41:41.634816", "MEAN_MOTION": 2.00613156, "ECCENTRICITY": 0.71974708, "INCLINATION": 63.1756, "RA_OF_ASC_NODE": 85.6045, "ARG_OF_PERICENTER": 269.084, "MEAN_ANOMALY": 15.7076, "EPHEMERIS_TYPE": 0, "CLASSIFICATION_TYPE": "U", "NORAD_CAT_ID": 47719, "ELEMENT_SET_NO": 999, "REV_AT_EPOCH": 3481, "BSTAR": 0, "MEAN_MOTION_DOT": -1.2e-07, "MEAN_MOTION_DDOT": 0}, "tle": {"line1": "1 47719U 21016A   25335.11228744 -.00000012  00000+0  00000+0 0  9997", "line2": "2 47719  63.1756  85.6045 7197470 269.0840  15.7076  2.00613156 34816"}}, "geometry": {"type": "Point", "coordinates": [113.40252061739541, 43.15755651906795]}}, {"type": "Feature", "properties": {"norad_id": 49008, "name": "FENGYUN 3E", "group": "weather", "lat": 81.12581991609439, "lon": -101.17371578030357, "alt_km": 818.6345963384465, "timestamp": "2025-12-04T15:47:53.739460+00:00", "meta": {"OBJECT_NAME": "FENGYUN 3E", "OBJECT_ID": "2021-062A", "EPOCH": "2025-12-04T06:55:36.120864", "MEAN_MOTION": 14.19878295, "ECCENTRICITY": 7.209e-05, "INCLINATION": 98.7476, "RA_OF_ASC_NODE": 338.91, "ARG_OF_PERICENTER": 320.2854, "MEAN_ANOMALY": 39.827, "EPHEMERIS_TYPE": 0, "CLASSIFICATION_TYPE": "U", "NORAD_CAT_ID": 49008, "ELEMENT_SET_NO": 999, "REV_AT_EPOCH": 22892, "BSTAR": 5.3531589e-05, "MEAN_MOTION_DOT": 7e-07, "MEAN_MOTION_DDOT": 0}, "tle": {"line1": "1 49008U 21062A   25338.28861251  .00000070  00000+0  53532-4 0  9994", "line2": "2 49008  98.7476 338.9100 0000720 320.2854  39.8270 14.19878295228927"}}, "geometry": {"type": "Point", "coordinates": [-101.17371578030357, 81.12581991609439]}}, {"type": "Feature", "properties": {"norad_id": 51850, "name": "GOES 18", "group": "weather", "lat": -0.0017872819803710892, "lon": 173.66763553660138, "alt_km": 35788.052178290774, "timestamp": "2025-12-04T15:47:53.739472+00:00", "meta": {"OBJECT_NAME": "GOES 18", "OBJECT_ID": "2022-021A", "EPOCH": "2025-12-04T06:13:36.774624", "MEAN_MOTION": 1.00270773, "ECCENTRICITY": 8.73e-05, "INCLINATION": 0.0096, "RA_OF_ASC_NODE": 57.4744, "ARG_OF_PERICENTER": 234.4038, "MEAN_ANOMALY": 97.8564, "EPHEMERIS_TYPE": 0, "CLASSIFICATION_TYPE": "U", "NORAD_CAT_ID": 51850, "ELEMENT_SET_NO": 999, "REV_AT_EPOCH": 463, "BSTAR": 0, "MEAN_MOTION_DOT": 1.12e-06, "MEAN_MOTION_DDOT": 0}, "tle": {"line1": "1 51850U 22021A   25338.25945341  .00000112  00000+0  00000+0 0  9992", "line2": "2 51850   0.0096  57.4744 0000873 234.4038  97.8564  1.00270773  4638"}}, "geometry": {"type": "Point", "coordinates": [173.66763553660138, -0.0017872819803710892]}}]}